[Satellite]
VERSION=1.1
NAME=ACTS
NICKNAME=ACTS
TLE1=1 22796U 93058B   11057.99894339 -.00000111  00000-0  10000-3 0  8761
TLE2=2 22796  10.7941  50.3080 0011635 346.2427  13.7942  1.00271642 70860
